QIANFAN-209             
1 69808U 26153J   26201.94400757  .00000070  00000+0  26170-4 0  9991
2 69808  88.9927 358.3899 0008338 158.0370 202.1179 14.19690654  2365
QIANFAN-210             
1 69809U 26153K   26201.86878164  .00000070  00000+0  25919-4 0  9994
2 69809  88.9936 358.3931 0007628 150.9177 209.2439 14.20411043  2351
QIANFAN-211             
1 69810U 26153L   26201.86807159  .00000070  00000+0  25740-4 0  9994
2 69810  88.9943 358.3928 0007242 157.7867 202.3638 14.20317751  2356
QIANFAN-212             
1 69811U 26153M   26201.86237240  .00000072  00000+0  26358-4 0  9991
2 69811  88.9946 358.4130 0011105 164.2291 195.9248 14.21342685  2352
QIANFAN-213             
1 69812U 26153N   26198.90858230 -.02004805  00000+0 -98228+0 0  9992
2 69812  88.9917 358.7338 0007827 155.5754 204.5809 14.21939575  1930
QIANFAN-214             
1 69813U 26153P   26201.92615327  .00000080  00000+0  27834-4 0  9995
2 69813  88.9928 358.3852 0008555 164.5042 195.6415 14.25491881  2367
QIANFAN-215             
1 69814U 26153Q   26201.92466949  .00000083  00000+0  28252-4 0  9998
2 69814  88.9927 358.3848 0008561 166.4084 193.7342 14.26679842  2360
QIANFAN-216             
1 69815U 26153R   26201.85451618  .00000083  00000+0  28395-4 0  9996
2 69815  88.9928 358.3932 0008778 166.8673 193.2751 14.26676566  2352
QIANFAN-217             
1 69816U 26153S   26201.92403455  .00000074  00000+0  24439-4 0  9996
2 69816  88.9927 358.3847 0008301 164.1397 196.0059 14.26768420  2367
QIANFAN-218             
1 69817U 26153T   26201.92354880  .00000165  00000+0  61877-4 0  9992
2 69817  88.9930 358.3853 0008068 161.5760 198.5728 14.26812013  2362
QIANFAN-219             
1 69848U 26155A   26201.90559819 -.01766329  00000+0 -89430+0 0  9999
2 69848  89.0058  60.2960 0035341 206.2304 153.7098 14.20028285  2190
QIANFAN-220             
1 69849U 26155B   26201.87167148  .00000046  00000+0  15450-4 0  9996
2 69849  89.0062  60.3090 0029929 203.1299 156.8544 14.17598036  2186
QIANFAN-221             
1 69850U 26155C   26201.90468251  .00000240  00000+0  92778-4 0  9995
2 69850  89.0062  60.2955 0030927 204.0277 155.9476 14.26648875  2195
QIANFAN-222             
1 69851U 26155D   26201.86400991  .00000047  00000+0  15940-4 0  9999
2 69851  89.0063  60.3081 0029126 204.3481 155.6335 14.18562572  2187
QIANFAN-223             
1 69852U 26155E   26201.85727162 -.01967490  00000+0 -10820+1 0  9996
2 69852  89.0059  60.3075 0030772 210.9030 149.0348 14.15450205  2185
QIANFAN-224             
1 69853U 26155F   26201.92554799  .00000053  00000+0  17791-4 0  9997
2 69853  89.0051  60.2973 0030014 204.0277 155.9514 14.20219603  2193
