{"fetched_at":"2026-07-21T07:06:31.784Z","source":"https://celestrak.org/NORAD/elements/gp.php?GROUP=qianfan&FORMAT=JSON","constellation":"qianfan","records":[{"OBJECT_NAME":"QIANFAN-209","OBJECT_ID":"2026-153J","EPOCH":"2026-07-20T22:39:22.254048","CLASSIFICATION_TYPE":"U","MEAN_MOTION":14.19690654,"ECCENTRICITY":0.00083381,"INCLINATION":88.9927,"RA_OF_ASC_NODE":358.3899,"ARG_OF_PERICENTER":158.037,"MEAN_ANOMALY":202.1179,"EPHEMERIS_TYPE":0,"NORAD_CAT_ID":69808,"ELEMENT_SET_NO":999,"REV_AT_EPOCH":236,"BSTAR":0.000026169711,"MEAN_MOTION_DOT":7e-7,"MEAN_MOTION_DDOT":0},{"OBJECT_NAME":"QIANFAN-210","OBJECT_ID":"2026-153K","EPOCH":"2026-07-20T20:51:02.733696","CLASSIFICATION_TYPE":"U","MEAN_MOTION":14.20411043,"ECCENTRICITY":0.00076282,"INCLINATION":88.9936,"RA_OF_ASC_NODE":358.3931,"ARG_OF_PERICENTER":150.9177,"MEAN_ANOMALY":209.2439,"EPHEMERIS_TYPE":0,"NORAD_CAT_ID":69809,"ELEMENT_SET_NO":999,"REV_AT_EPOCH":235,"BSTAR":0.000025919118,"MEAN_MOTION_DOT":7e-7,"MEAN_MOTION_DDOT":0},{"OBJECT_NAME":"QIANFAN-211","OBJECT_ID":"2026-153L","EPOCH":"2026-07-20T20:50:01.385376","CLASSIFICATION_TYPE":"U","MEAN_MOTION":14.20317751,"ECCENTRICITY":0.00072421,"INCLINATION":88.9943,"RA_OF_ASC_NODE":358.3928,"ARG_OF_PERICENTER":157.7867,"MEAN_ANOMALY":202.3638,"EPHEMERIS_TYPE":0,"NORAD_CAT_ID":69810,"ELEMENT_SET_NO":999,"REV_AT_EPOCH":235,"BSTAR":0.000025739663,"MEAN_MOTION_DOT":7e-7,"MEAN_MOTION_DDOT":0},{"OBJECT_NAME":"QIANFAN-212","OBJECT_ID":"2026-153M","EPOCH":"2026-07-20T20:41:48.975360","CLASSIFICATION_TYPE":"U","MEAN_MOTION":14.21342685,"ECCENTRICITY":0.00111051,"INCLINATION":88.9946,"RA_OF_ASC_NODE":358.413,"ARG_OF_PERICENTER":164.2291,"MEAN_ANOMALY":195.9248,"EPHEMERIS_TYPE":0,"NORAD_CAT_ID":69811,"ELEMENT_SET_NO":999,"REV_AT_EPOCH":235,"BSTAR":0.000026358035,"MEAN_MOTION_DOT":7.2e-7,"MEAN_MOTION_DDOT":0},{"OBJECT_NAME":"QIANFAN-213","OBJECT_ID":"2026-153N","EPOCH":"2026-07-17T21:48:21.510720","CLASSIFICATION_TYPE":"U","MEAN_MOTION":14.21939575,"ECCENTRICITY":0.00078274,"INCLINATION":88.9917,"RA_OF_ASC_NODE":358.7338,"ARG_OF_PERICENTER":155.5754,"MEAN_ANOMALY":204.5809,"EPHEMERIS_TYPE":0,"NORAD_CAT_ID":69812,"ELEMENT_SET_NO":999,"REV_AT_EPOCH":193,"BSTAR":-0.9822754,"MEAN_MOTION_DOT":-0.02004805,"MEAN_MOTION_DDOT":0},{"OBJECT_NAME":"QIANFAN-214","OBJECT_ID":"2026-153P","EPOCH":"2026-07-20T22:13:39.642528","CLASSIFICATION_TYPE":"U","MEAN_MOTION":14.25491881,"ECCENTRICITY":0.00085553,"INCLINATION":88.9928,"RA_OF_ASC_NODE":358.3852,"ARG_OF_PERICENTER":164.5042,"MEAN_ANOMALY":195.6415,"EPHEMERIS_TYPE":0,"NORAD_CAT_ID":69813,"ELEMENT_SET_NO":999,"REV_AT_EPOCH":236,"BSTAR":0.00002783351,"MEAN_MOTION_DOT":8e-7,"MEAN_MOTION_DDOT":0},{"OBJECT_NAME":"QIANFAN-215","OBJECT_ID":"2026-153Q","EPOCH":"2026-07-20T22:11:31.443936","CLASSIFICATION_TYPE":"U","MEAN_MOTION":14.26679842,"ECCENTRICITY":0.00085612,"INCLINATION":88.9927,"RA_OF_ASC_NODE":358.3848,"ARG_OF_PERICENTER":166.4084,"MEAN_ANOMALY":193.7342,"EPHEMERIS_TYPE":0,"NORAD_CAT_ID":69814,"ELEMENT_SET_NO":999,"REV_AT_EPOCH":236,"BSTAR":0.00002825206,"MEAN_MOTION_DOT":8.3e-7,"MEAN_MOTION_DDOT":0},{"OBJECT_NAME":"QIANFAN-216","OBJECT_ID":"2026-153R","EPOCH":"2026-07-20T20:30:30.197952","CLASSIFICATION_TYPE":"U","MEAN_MOTION":14.26676566,"ECCENTRICITY":0.00087785,"INCLINATION":88.9928,"RA_OF_ASC_NODE":358.3932,"ARG_OF_PERICENTER":166.8673,"MEAN_ANOMALY":193.2751,"EPHEMERIS_TYPE":0,"NORAD_CAT_ID":69815,"ELEMENT_SET_NO":999,"REV_AT_EPOCH":235,"BSTAR":0.000028394599,"MEAN_MOTION_DOT":8.3e-7,"MEAN_MOTION_DDOT":0},{"OBJECT_NAME":"QIANFAN-217","OBJECT_ID":"2026-153S","EPOCH":"2026-07-20T22:10:36.585120","CLASSIFICATION_TYPE":"U","MEAN_MOTION":14.2676842,"ECCENTRICITY":0.00083014,"INCLINATION":88.9927,"RA_OF_ASC_NODE":358.3847,"ARG_OF_PERICENTER":164.1397,"MEAN_ANOMALY":196.0059,"EPHEMERIS_TYPE":0,"NORAD_CAT_ID":69816,"ELEMENT_SET_NO":999,"REV_AT_EPOCH":236,"BSTAR":0.000024438952,"MEAN_MOTION_DOT":7.4e-7,"MEAN_MOTION_DDOT":0},{"OBJECT_NAME":"QIANFAN-218","OBJECT_ID":"2026-153T","EPOCH":"2026-07-20T22:09:54.616320","CLASSIFICATION_TYPE":"U","MEAN_MOTION":14.26812013,"ECCENTRICITY":0.00080689,"INCLINATION":88.993,"RA_OF_ASC_NODE":358.3853,"ARG_OF_PERICENTER":161.576,"MEAN_ANOMALY":198.5728,"EPHEMERIS_TYPE":0,"NORAD_CAT_ID":69817,"ELEMENT_SET_NO":999,"REV_AT_EPOCH":236,"BSTAR":0.000061877167,"MEAN_MOTION_DOT":0.00000165,"MEAN_MOTION_DDOT":0},{"OBJECT_NAME":"QIANFAN-219","OBJECT_ID":"2026-155A","EPOCH":"2026-07-20T21:44:03.683616","CLASSIFICATION_TYPE":"U","MEAN_MOTION":14.20028285,"ECCENTRICITY":0.00353415,"INCLINATION":89.0058,"RA_OF_ASC_NODE":60.296,"ARG_OF_PERICENTER":206.2304,"MEAN_ANOMALY":153.7098,"EPHEMERIS_TYPE":0,"NORAD_CAT_ID":69848,"ELEMENT_SET_NO":999,"REV_AT_EPOCH":219,"BSTAR":-0.89429909,"MEAN_MOTION_DOT":-0.01766329,"MEAN_MOTION_DDOT":0},{"OBJECT_NAME":"QIANFAN-220","OBJECT_ID":"2026-155B","EPOCH":"2026-07-20T20:55:12.415872","CLASSIFICATION_TYPE":"U","MEAN_MOTION":14.17598036,"ECCENTRICITY":0.00299292,"INCLINATION":89.0062,"RA_OF_ASC_NODE":60.309,"ARG_OF_PERICENTER":203.1299,"MEAN_ANOMALY":156.8544,"EPHEMERIS_TYPE":0,"NORAD_CAT_ID":69849,"ELEMENT_SET_NO":999,"REV_AT_EPOCH":218,"BSTAR":0.000015450483,"MEAN_MOTION_DOT":4.6e-7,"MEAN_MOTION_DDOT":0},{"OBJECT_NAME":"QIANFAN-221","OBJECT_ID":"2026-155C","EPOCH":"2026-07-20T21:42:44.568864","CLASSIFICATION_TYPE":"U","MEAN_MOTION":14.26648875,"ECCENTRICITY":0.00309273,"INCLINATION":89.0062,"RA_OF_ASC_NODE":60.2955,"ARG_OF_PERICENTER":204.0277,"MEAN_ANOMALY":155.9476,"EPHEMERIS_TYPE":0,"NORAD_CAT_ID":69850,"ELEMENT_SET_NO":999,"REV_AT_EPOCH":219,"BSTAR":0.000092778075,"MEAN_MOTION_DOT":0.0000024,"MEAN_MOTION_DDOT":0},{"OBJECT_NAME":"QIANFAN-222","OBJECT_ID":"2026-155D","EPOCH":"2026-07-20T20:44:10.456224","CLASSIFICATION_TYPE":"U","MEAN_MOTION":14.18562572,"ECCENTRICITY":0.00291269,"INCLINATION":89.0063,"RA_OF_ASC_NODE":60.3081,"ARG_OF_PERICENTER":204.3481,"MEAN_ANOMALY":155.6335,"EPHEMERIS_TYPE":0,"NORAD_CAT_ID":69851,"ELEMENT_SET_NO":999,"REV_AT_EPOCH":218,"BSTAR":0.000015939527,"MEAN_MOTION_DOT":4.7e-7,"MEAN_MOTION_DDOT":0},{"OBJECT_NAME":"QIANFAN-223","OBJECT_ID":"2026-155E","EPOCH":"2026-07-20T20:34:28.267968","CLASSIFICATION_TYPE":"U","MEAN_MOTION":14.15450205,"ECCENTRICITY":0.00307722,"INCLINATION":89.0059,"RA_OF_ASC_NODE":60.3075,"ARG_OF_PERICENTER":210.903,"MEAN_ANOMALY":149.0348,"EPHEMERIS_TYPE":0,"NORAD_CAT_ID":69852,"ELEMENT_SET_NO":999,"REV_AT_EPOCH":218,"BSTAR":-1.0820395,"MEAN_MOTION_DOT":-0.0196749,"MEAN_MOTION_DDOT":0},{"OBJECT_NAME":"QIANFAN-224","OBJECT_ID":"2026-155F","EPOCH":"2026-07-20T22:12:47.346336","CLASSIFICATION_TYPE":"U","MEAN_MOTION":14.20219603,"ECCENTRICITY":0.00300149,"INCLINATION":89.0051,"RA_OF_ASC_NODE":60.2973,"ARG_OF_PERICENTER":204.0277,"MEAN_ANOMALY":155.9514,"EPHEMERIS_TYPE":0,"NORAD_CAT_ID":69853,"ELEMENT_SET_NO":999,"REV_AT_EPOCH":219,"BSTAR":0.000017790563,"MEAN_MOTION_DOT":5.3e-7,"MEAN_MOTION_DDOT":0}]}
